     2              NAVIGATION DATA                         RINEX VERSION / TYPE
CCRINEXN V1.6.0 UX  CDDIS               06-SEP-16 15:33     PGM / RUN BY / DATE 
IGS BROADCAST EPHEMERIS FILE                                COMMENT             
    0.1024D-07  0.2235D-07 -0.5960D-07 -0.1192D-06          ION ALPHA           
    0.9421D+05  0.9830D+05 -0.1311D+06 -0.5243D+06          ION BETA            
    0.372529029846D-08 0.710542735760D-14   233472     1913 DELTA-UTC: A0,A1,T,W
    17                                                      LEAP SECONDS        
                                                            END OF HEADER       
20 16  9  5 20  0  0.0 0.434029847384D-03 0.204636307899D-11 0.000000000000D+00
    0.400000000000D+02-0.433437500000D+02 0.536486632536D-08-0.154045489820D+01
   -0.216066837311D-05 0.469163537491D-02 0.912137329578D-05 0.515379203796D+04
    0.158400000000D+06 0.391155481338D-07-0.308430425788D+01 0.949949026108D-07
    0.926884253250D+00 0.184937500000D+03 0.143113005729D+01-0.840285001243D-08
   -0.376801409577D-09 0.100000000000D+01 0.191300000000D+04 0.000000000000D+00
    0.200000000000D+01 0.000000000000D+00-0.838190317154D-08 0.400000000000D+02
    0.155460000000D+06 0.400000000000D+01 0.000000000000D+00 0.000000000000D+00
21 16  9  5 20  0  0.0-0.531544908881D-03-0.454747350886D-12 0.000000000000D+00
    0.260000000000D+02-0.153437500000D+02 0.544558397329D-08 0.186478431328D+01
   -0.120513141155D-05 0.233994360315D-01 0.440143048763D-05 0.515355127716D+04
    0.158400000000D+06 0.109896063805D-06 0.220911950468D+01-0.579282641411D-06
    0.937156710396D+00 0.283656250000D+03-0.176279776205D+01-0.842499379195D-08
    0.119290683221D-09 0.100000000000D+01 0.191300000000D+04 0.000000000000D+00
    0.200000000000D+01 0.000000000000D+00-0.977888703346D-08 0.260000000000D+02
    0.156540000000D+06 0.400000000000D+01 0.000000000000D+00 0.000000000000D+00
22 16  9  5 20  0  0.0 0.252969563007D-03-0.100044417195D-10 0.000000000000D+00
    0.380000000000D+02-0.329687500000D+02 0.536915221817D-08-0.116426395611D+01
   -0.168010592461D-05 0.748889893293D-02 0.940822064877D-05 0.515374097443D+04
    0.158400000000D+06-0.596046447754D-07-0.303223178248D+01 0.219792127609D-06
    0.923526227203D+00 0.177250000000D+03-0.186866789704D+01-0.844642325600D-08
   -0.339657005220D-09 0.100000000000D+01 0.191300000000D+04 0.000000000000D+00
    0.200000000000D+01 0.000000000000D+00-0.176951289177D-07 0.380000000000D+02
    0.151200000000D+06 0.400000000000D+01 0.000000000000D+00 0.000000000000D+00
23 16  9  5 20  0  0.0-0.188830774277D-03-0.136424205266D-11 0.000000000000D+00
    0.800000000000D+02 0.745625000000D+02 0.480805741775D-08-0.194857487733D+01
    0.371783971786D-05 0.111430397956D-01 0.810809433460D-05 0.515362272835D+04
    0.158400000000D+06 0.540167093277D-07-0.195348187322D+01-0.115483999252D-06
    0.945315198252D+00 0.214625000000D+03-0.253245172166D+01-0.807426489697D-08
    0.254653464482D-09 0.100000000000D+01 0.191300000000D+04 0.000000000000D+00
    0.290000000000D+01 0.000000000000D+00-0.200234353542D-07 0.800000000000D+02
    0.151200000000D+06 0.400000000000D+01 0.000000000000D+00 0.000000000000D+00
24 16  9  5 20  0  0.0-0.227238051593D-04-0.568434188608D-12 0.000000000000D+00
    0.170000000000D+02 0.993750000000D+01 0.497199281774D-08-0.248025134040D+01
    0.586733222008D-06 0.461401010398D-02 0.370480120182D-05 0.515372687912D+04
    0.158400000000D+06-0.447034835815D-07-0.927843849975D+00-0.745058059692D-08
    0.948113974124D+00 0.301343750000D+03 0.397364102164D+00-0.844749472921D-08
   -0.714315468392D-11 0.100000000000D+01 0.191300000000D+04 0.000000000000D+00
    0.200000000000D+01 0.000000000000D+00 0.232830643654D-08 0.170000000000D+02
    0.151200000000D+06 0.400000000000D+01 0.000000000000D+00 0.000000000000D+00
25 16  9  5 20  0  0.0-0.240317080170D-03-0.693489710102D-11 0.000000000000D+00
    0.127000000000D+03-0.571875000000D+02 0.389909098422D-08 0.168270517257D+01
   -0.300072133541D-05 0.558871054091D-02 0.886991620064D-05 0.515370733452D+04
    0.158400000000D+06-0.540167093277D-07 0.146916133087D+00-0.391155481338D-07
    0.978606545565D+00 0.216218750000D+03 0.791013682701D+00-0.786675625340D-08
   -0.216437586923D-09 0.100000000000D+01 0.191300000000D+04 0.000000000000D+00
    0.200000000000D+01 0.000000000000D+00 0.558793544769D-08 0.127000000000D+03
    0.151200000000D+06 0.400000000000D+01 0.000000000000D+00 0.000000000000D+00
26 16  9  5 20  0  0.0-0.463619362563D-03-0.773070496507D-11 0.000000000000D+00
    0.640000000000D+02-0.527187500000D+02 0.427053502778D-08 0.115428920425D+01
   -0.273063778877D-05 0.942756189033D-03 0.891275703907D-05 0.515357803345D+04
    0.158400000000D+06-0.167638063431D-07 0.136170123507D+00 0.186264514923D-07
    0.960517687863D+00 0.207312500000D+03-0.372347468624D-01-0.799140430264D-08
   -0.156077929844D-09 0.100000000000D+01 0.191300000000D+04 0.000000000000D+00
    0.200000000000D+01 0.000000000000D+00 0.698491930962D-08 0.640000000000D+02
    0.151200000000D+06 0.400000000000D+01 0.000000000000D+00 0.000000000000D+00
27 16  9  5 20  0  0.0 0.135570764542D-03 0.477484718431D-11 0.000000000000D+00
    0.140000000000D+02 0.289375000000D+02 0.424446255920D-08-0.661843073609D+00
    0.159069895744D-05 0.379713077564D-02 0.846572220325D-05 0.515365196419D+04
    0.158400000000D+06 0.633299350738D-07 0.118737555871D+01-0.204890966415D-07
    0.972146351992D+00 0.221781250000D+03 0.346597586895D+00-0.798247512535D-08
    0.433232338892D-09 0.100000000000D+01 0.191300000000D+04 0.000000000000D+00
    0.200000000000D+01 0.000000000000D+00 0.186264514923D-08 0.140000000000D+02
    0.151200000000D+06 0.000000000000D+00 0.000000000000D+00 0.000000000000D+00
28 16  9  5 20  0  0.0 0.549847260118D-03 0.284217094304D-11 0.000000000000D+00
    0.840000000000D+02-0.412500000000D+02 0.372729811407D-08 0.190265343555D+00
   -0.222399830818D-05 0.198206654750D-01 0.100210309029D-04 0.515363369370D+04
    0.158400000000D+06-0.335276126862D-06 0.222623913820D+00-0.502914190292D-07
    0.989692613379D+00 0.206125000000D+03-0.161286852681D+01-0.799819029959D-08
   -0.202508435289D-09 0.100000000000D+01 0.191300000000D+04 0.000000000000D+00
    0.280000000000D+01 0.000000000000D+00-0.107102096081D-07 0.840000000000D+02
    0.151218000000D+06 0.400000000000D+01 0.000000000000D+00 0.000000000000D+00
29 16  9  5 20  0  0.0 0.651786569506D-03-0.102318153950D-11 0.000000000000D+00
    0.920000000000D+02 0.284687500000D+02 0.414945855589D-08 0.134101598743D+01
    0.122562050819D-05 0.579224782996D-03 0.878050923348D-05 0.515375440216D+04
    0.158400000000D+06 0.372529029846D-07 0.124770701712D+01 0.130385160446D-07
    0.978184356185D+00 0.221343750000D+03 0.109371386569D+00-0.784854120896D-08
    0.460733477113D-09 0.100000000000D+01 0.191300000000D+04 0.000000000000D+00
    0.200000000000D+01 0.000000000000D+00-0.102445483208D-07 0.920000000000D+02
    0.151200000000D+06 0.400000000000D+01 0.000000000000D+00 0.000000000000D+00
30 16  9  5 20  0  0.0 0.149000436068D-03 0.170530256582D-11 0.000000000000D+00
    0.670000000000D+02-0.959375000000D+01 0.497199281774D-08 0.288600510951D+01
   -0.538304448128D-06 0.239291926846D-02 0.375881791115D-05 0.515377274513D+04
    0.158400000000D+06-0.242143869400D-07-0.836217994716D+00-0.260770320892D-07
    0.950882925485D+00 0.302718750000D+03 0.313348579065D+01-0.847213861287D-08
   -0.172864343351D-09 0.100000000000D+01 0.191300000000D+04 0.000000000000D+00
    0.200000000000D+01 0.000000000000D+00 0.372529029846D-08 0.670000000000D+02
    0.153240000000D+06 0.400000000000D+01 0.000000000000D+00 0.000000000000D+00
31 16  9  5 20  0  0.0 0.249595846981D-03-0.204636307899D-11 0.000000000000D+00
    0.104000000000D+03 0.812500000000D+00 0.448411535283D-08 0.265161849462D+01
    0.931322574615D-07 0.830099824816D-02 0.396557152271D-05 0.515354223633D+04
    0.158400000000D+06-0.242143869400D-07-0.869121333729D+00 0.108033418655D-06
    0.969885760275D+00 0.311343750000D+03-0.383374352624D+00-0.813426739632D-08
   -0.168578450541D-09 0.100000000000D+01 0.191300000000D+04 0.000000000000D+00
    0.290000000000D+01 0.000000000000D+00-0.135041773319D-07 0.104000000000D+03
    0.151200000000D+06 0.400000000000D+01 0.000000000000D+00 0.000000000000D+00
32 16  9  5 20  0  0.0-0.104557257146D-03-0.138697942020D-10 0.000000000000D+00
    0.490000000000D+02 0.595937500000D+02 0.459804860853D-08-0.282209693635D+00
    0.303611159325D-05 0.645937980153D-03 0.876002013683D-05 0.515364380264D+04
    0.158400000000D+06 0.130385160446D-07-0.195587448451D+01-0.372529029846D-08
    0.958966478289D+00 0.209093750000D+03-0.230287621423D+01-0.810640887749D-08
    0.100361323418D-09 0.100000000000D+01 0.191300000000D+04 0.000000000000D+00
    0.200000000000D+01 0.000000000000D+00 0.931322574616D-09 0.490000000000D+02
    0.151200000000D+06 0.000000000000D+00 0.000000000000D+00 0.000000000000D+00
 2 16  9  5 21 59 44.0 0.556519255042D-03-0.466116034659D-11 0.000000000000D+00
    0.300000000000D+01-0.126875000000D+02 0.538200989660D-08-0.128856002122D+01
   -0.270083546638D-06 0.159141641343D-01 0.428035855293D-05 0.515362355614D+04
    0.165584000000D+06 0.284984707832D-06 0.219782135617D+01 0.264495611191D-06
    0.943896341803D+00 0.284781250000D+03-0.208834923453D+01-0.853999858236D-08
    0.120004998690D-09 0.100000000000D+01 0.191300000000D+04 0.000000000000D+00
    0.200000000000D+01 0.000000000000D+00-0.204890966415D-07 0.300000000000D+01
    0.163200000000D+06 0.400000000000D+01 0.000000000000D+00 0.000000000000D+00
